#dP2024  9 18  0  0  0.00000000      96 __u+U IGS20 FIT  IAC
## 2332 259200.00000000   900.00000000 60571 0.0000000000000
+  132   C01C02C03C04C06C07C08C09C10C11C12C13C14C16C19C20C21
+        C22C23C24C25C26C27C28C29C30C32C33C34C35C36C37C38C39
+        C40C41C42C43C44C45C59C60C62E02E03E04E05E06E07E08E09
+        E10E11E12E13E14E15E18E19E21E24E25E26E27E29E30E31E33
+        E34E36G01G02G03G04G05G06G07G08G09G10G11G12G13G14G15
+        G16G17G18G19G20G21G22G23G24G25G26G27G28G29G30G31G32
+        J02J03J04J07R01R02R03R04R05R06R07R08R09R10R11R12R13
+        R14R15R16R17R18R19R20R21R22R23R24R25R26  0  0  0  0
++        16 16 16 16  9 10  9 10 10  9  9  9  9  9  7  7  7
++         7  7  7  7  7  7  7  7  7  7  7  7  7  7  7  8  8
++         8  7  7  7  7  7 17 16 16  4  4  4  4  4  4  4  4
++         4  5  4  4  4  4  4  4  4  4  4  4  4  4  5  4  4
++         5  4  8  4  4  4  4  4  4  4  4  4  4  4  4  4  4
++         4  4  4  4  4  4  4  4  4  4  4  4  4  4  4  4  4
++        10 10 11 16  7  6  6  6  6 16  6  6  6 16  6  6 15
++         6  6  6  6  6  7  8  6  6 15  6  8  8  0  0  0  0
%c M  cc GPS ccc cccc cccc cccc cccc ccccc ccccc ccccc ccccc
%c cc cc ccc ccc cccc cccc cccc cccc ccccc ccccc ccccc ccccc
%f  0.0000000  0.000000000  0.00000000000  0.000000000000000
%f  0.0000000  0.000000000  0.00000000000  0.000000000000000
%i    0    0    0    0      0      0      0      0         0
%i    0    0    0    0      0      0      0      0         0
/* INFORMATION & ANALYSIS CENTER (IAC)            RAPID DATA
/* S/V CLOCKS ARE ALIGNED TO GNSS TIME                      
/* G:C1WC2W R:C1PC2P E:C1XC5X C:C2IC6I J:C1CC2S             
/* PCV:IGS20_2317 OL/AL:FES2004  NONE     YN ORB:CoN CLK:CoN
*  2024 09 18 13 30  0.00000000
PC01 -34318.028083  24466.647899  -1249.281144    923.617425
PC02   4439.271604  41930.810995   -836.471037    888.440992
PC03 -14730.508029  39504.760815  -1052.157356    910.750812
PC04 -39668.309586  14281.148239  -1422.488560    407.967356
PC06 -17477.018198  30411.364344  23281.196294    233.975228
PC07  -6381.231046  38937.132905  15331.196628   -362.640282
PC08  -3376.661250  20509.382847 -36682.808014   -556.456857
PC09  -9593.372027  29049.885590  29225.664894   -349.028295
PC10   -655.950667  41423.039077   9752.763073   -184.058330
PC11   2034.735248 -22123.130228  16949.526371    768.404635
PC12  16122.866281 -22768.888358   -123.906365   -264.217786
PC13   5248.873358  24303.390988 -33811.490578    433.456221
PC14  -8226.993936 -25923.075956   6119.504305   -211.849801
PC16 -21374.007566  30002.161340  20492.998303   -812.896156
PC19  14127.423902  23875.282626   3148.633344   -937.559031
PC20   2356.119848  24587.713110 -13016.636605   -935.795331
PC21  12128.051664 -10295.491976  22926.449668   -929.937349
PC22  18560.403213   9474.512331  18555.726528    126.663676
PC23 -27151.404832  -4811.500281  -4314.224904   -837.339434
PC24   6435.138089 -15666.152467 -22187.024004    825.500771
PC25 -14759.081917 -14229.069323 -18952.412943    509.478224
PC26  23499.315877  -8177.698149 -12618.930228   -350.526090
PC27 -19573.351284  17776.538450   8906.158637    370.565268
PC28 -19042.934845   2770.810730  20220.766404    287.065271
PC29   6483.791409  17450.994062 -20792.097998    337.079532
PC30  -9554.824989  25185.659950  -7269.354338   -207.959350
PC32 -12116.502241  10292.476687 -22932.242522   -737.954738
PC33 -14223.803540 -23808.750127  -3031.217170   -967.749985
PC34   8264.093211 -25159.770249   8809.826213    523.798016
PC35  18827.393578  -2857.981706 -20419.782978    257.859283
PC36  14917.506526  14404.707193  18691.294986    185.583387
PC37 -23758.782012   7605.988168  12547.436392   -897.442488
PC38 -13103.521666  18644.908498 -35444.025362    180.103207
PC39 -24743.795285  30620.469492  14817.938375     -9.896048
PC40 -10935.791133  36434.669863  18551.351360    -91.879228
PC41 -18667.847391 -10327.732030 -17937.156032   -908.419311
PC42   -909.460988 -23828.792234  14502.809964   -479.069620
PC43  -5767.982428 -18247.869974  20306.372530     86.145497
PC44  18967.899825 -18385.654986  -9042.647217    597.010942
PC45  26978.054260   5213.558577   4794.424716   -133.603068
PC59 -32290.152287  27090.924122  -1437.086913     -0.364436
PC60   7279.051832  41495.181619  -1637.907191      0.089745
PC62 -39602.240559  14482.038443   1321.376900     -0.262431
PE02 -22797.657567  -1622.033222  18817.984755    160.251874
PE03 -17172.302137   8333.998204 -22636.989855   -141.208458
PE04  10408.240271 -26089.385878   9332.744283    -36.033380
PE05 -13659.470952 -13896.922705 -22284.083456   4785.284326
PE06   4367.314468 -29279.521210    -30.579345    -27.073099
PE07   1911.380329  28262.262601   8605.432922   -142.722553
PE08 -10817.114262  25635.931919 -10122.034892   -337.548790
PE09  -1809.444230 -28265.373200  -8582.263917   -594.301067
PE10   9481.410054 -18355.533681  21187.317896   -657.470458
PE11  -2254.535761 -16213.813721  24652.950513   1619.604388
PE12  18461.302829 -17624.149779  14994.058383  -1215.366582
PE13   1584.175121  16344.363097 -24623.977423    -24.902216
PE14    728.466685  31808.025538  -6055.032838    234.554923
PE15 -19026.462001  17447.181271 -14480.799366   -127.874328
PE18   -422.746531 -23041.607442   4690.447396    561.348070
PE19  17179.975074  -6085.440252  23324.020342    641.420547
PE21  24203.475339  16796.695359  -2871.240076   -617.529870
PE24 -11184.154557 -22710.418238 -15365.645201   -994.363820
PE25 -24072.402678 -17051.777133   2465.397555      9.206286
PE26  21299.652575   5475.762968 -19800.619778   -265.681041
PE27  11380.198066  22649.933754  15286.317277   -455.645580
PE29  13939.392678  13513.327636  22331.480543    -31.127749
PE30  -8035.292856  15104.605899  24149.328499   -729.603300
PE31   7967.859936 -15077.356626 -24183.002059    -36.293519
PE33  28144.453292  -7992.477234  -4432.737636     15.392028
PE34 -28127.466134   8348.612743   3987.360441   -135.044542
PE36 -20863.160701  -5732.874816  20204.286589   -285.044460
PG01 -22650.304480  -5138.739202  12800.255757    194.207503
PG02  -6558.361788  17949.965019 -17830.529729   -355.486380
PG03   6837.694108  18993.791283 -17485.884567    541.939290
PG04   -303.247966  26156.192278   4148.297979    445.956242
PG05   9373.738526 -11631.977203  21780.181624   -186.997458
PG06  24399.391784  -3857.422425  -9835.325978     22.401178
PG07  12141.677885  11189.975331  21406.754577    -36.446528
PG08  -6660.758384  24279.893633   7616.846380    356.619532
PG09   8049.860810  21429.376214  13324.115615    361.724298
PG10 -23396.971825  -9411.717306  -8647.563221   -129.291513
PG11  22782.372102 -12801.626485   4577.176199   -735.900714
PG12  -1965.461449 -18680.923705 -19074.549808   -538.950549
PG13  13408.359118 -18610.908065  12954.333768    677.127711
PG14  23112.817323  12243.293510  -5227.717368    498.334683
PG15   3211.287315 -25255.283678   6742.659329    205.702922
PG16 -14395.199270   7021.781947  20921.968769   -177.747395
PG17  13913.203572   6306.380682 -21290.576463    623.128584
PG18 -12422.866654 -10212.284635  21202.173167   -654.021299
PG19  15578.598824  -2463.265661 -21461.271318    539.642717
PG20  18794.983566  -5361.502843  17983.157264    370.515142
PG21 -11635.599962  18284.181311 -14183.153100    101.513231
PG22  21944.511242   6978.515462 -12558.309256    -63.044804
PG23 -20522.548503 -16611.009576   3867.143122    322.867969
PG24   7569.237928 -19126.823669 -17024.122469   -486.575736
PG25 -14301.208615 -19539.629801 -11552.744822    499.626041
PG26 -22599.005363  -1010.711910  14051.138498     76.130885
PG27 -12551.150138  16512.437784  16049.350926    -33.878427
PG28 -23622.323229   2706.877281 -11853.842689   -415.604722
PG29  -4209.102403 -23449.736779  11567.786636   -577.057480
PG30  20862.450537   3526.923218  16362.650150   -318.993695
PG31 -24647.131598  10448.833074   -542.876410   -224.547396
PG32 -14619.384041  -4773.796134 -21458.548878   -595.967307
PJ02 -26656.437265  21947.592445  29372.661511     -1.049110
PJ03 -35922.061191  21363.059929  -1228.576809     -3.213711
PJ04 -19413.192823  27424.710511 -20442.972588     22.240143
PJ07 -25415.836118  33655.466463     10.892256      0.014914
PR01  -4498.714714 -24257.695003   6459.710297     98.201910
PR02 -10734.795464 -20644.904330 -10496.239039    -24.713455
PR03 -12085.122383  -4991.036849 -21874.542911    107.796215
PR04  -6594.216126  12735.523157 -21066.602407    255.271489
PR05   2164.634965  23765.787430  -8965.950514    137.832976
PR06  11979.373036  19247.506708  11651.747104   -180.951294
PR07  11987.901938   4257.413097  22133.091269     91.147764
PR08   6485.479485 -13087.645636  20976.510276     -6.405237
PR09  18944.676881  10796.241519  13329.521505    209.825620
PR10  24895.785755   5252.608953  -1082.234261   -218.722761
PR11  18342.580868  -4061.758808 -17251.241091     11.527781
PR12  -1173.983621 -11496.119082 -22713.444666     44.996604
PR13 -16702.942538 -11500.827724 -15484.739115    -51.532076
PR14 -24931.844954  -4168.197324   3350.632508     26.940863
PR15 -17022.396987   4938.148634  18362.978036     75.758082
PR16   1058.660071  11332.208718  22844.201035     29.229997
PR17 -17492.116293   6429.416484  17455.065995    123.090970
PR18 -18860.072282  16889.695354   2966.742209    162.651213
PR19 -12576.171171  18898.755145 -11646.098444   -291.807755
PR20   5154.457617   9337.869324 -23157.783915   -119.264804
PR21  17172.135820  -5672.517764 -17967.055126   -135.497985
PR22  18981.409448 -16960.179649  -1654.772329     43.906035
PR23  10025.880556 -18730.574512  14107.957753   -133.133344
PR24  -6366.658903  -9034.313365  23007.933106    -72.516900
PR25  17981.159775  -5853.771110 -17096.604515    -99.315552
PR26   7129.178057 -11608.847091  21576.058364     31.832947
EOF
